ONEWEB-0512             
1 54130U 22138T   24280.64331525  .00000142  00000+0  32311-3 0  9993
2 54130  87.9132  67.9973 0001885 109.8545 250.2791 13.19727270 95223
ONEWEB-0513             
1 54131U 22138U   24280.84152251  .00000108  00000+0  23666-3 0  9998
2 54131  87.9132  67.9492 0001790 114.6809 245.4510 13.19723528 96006
ONEWEB-0514             
1 54132U 22138V   24280.65911218  .00000138  00000+0  31155-3 0  9999
2 54132  87.9126  67.9773 0001573  94.6724 265.4589 13.19726755 95242
ONEWEB-0515             
1 54133U 22138W   24280.71618723  .00000104  00000+0  22455-3 0  9998
2 54133  87.9274  37.4311 0002110  72.4499 287.6864 13.20772812 97665
ONEWEB-0516             
1 54134U 22138X   24280.86127988  .00000142  00000+0  32189-3 0  9990
2 54134  87.9132  67.9553 0001731  94.4526 265.6805 13.19727494 95278
ONEWEB-0517             
1 54135U 22138Y   24280.68911401  .00000181  00000+0  41918-3 0  9995
2 54135  87.9125  67.9668 0001289 102.0400 258.0877 13.19726168 95253
ONEWEB-0518             
1 54136U 22138Z   24280.85971106  .00000104  00000+0  22830-3 0  9990
2 54136  87.9132  67.9531 0001553  97.5083 262.6226 13.19727022 95271
ONEWEB-0519             
1 54137U 22138AA  24280.88495105 -.00006424  00000+0 -16082-1 0  9997
2 54137  87.9124  67.9229 0001761 101.5952 258.5378 13.19755810 95288
